[{"OBJECT_NAME":"STARLINK-5869","OBJECT_ID":"2023-088P","EPOCH":"2026-03-09T11:56:07.163232","MEAN_MOTION":15.02556227,"ECCENTRICITY":0.0001587,"INCLINATION":43.0054,"RA_OF_ASC_NODE":108.268,"ARG_OF_PERICENTER":273.8154,"MEAN_ANOMALY":86.2507,"EPHEMERIS_TYPE":0,"CLASSIFICATION_TYPE":"U","NORAD_CAT_ID":57061,"ELEMENT_SET_NO":999,"REV_AT_EPOCH":14936,"BSTAR":8.2896537e-5,"MEAN_MOTION_DOT":9.17e-6,"MEAN_MOTION_DDOT":0},{"OBJECT_NAME":"NOAA 16 DEB","OBJECT_ID":"2000-055BZ","EPOCH":"2026-03-09T09:57:46.840608","MEAN_MOTION":15.04968987,"ECCENTRICITY":0.00133628,"INCLINATION":98.8453,"RA_OF_ASC_NODE":286.076,"ARG_OF_PERICENTER":194.204,"MEAN_ANOMALY":165.8809,"EPHEMERIS_TYPE":0,"CLASSIFICATION_TYPE":"U","NORAD_CAT_ID":41142,"ELEMENT_SET_NO":999,"REV_AT_EPOCH":53866,"BSTAR":0.0051237154,"MEAN_MOTION_DOT":0.00073426,"MEAN_MOTION_DDOT":0}]
